COSMOS 2529 (757)       
1 43687U 18086A   26073.86004509  .00000002  00000+0  00000+0 0  9991
2 43687  64.2950 195.7765 0008360 253.0961 106.7938  2.13102093 57275
COSMOS 2534 (758)       
1 44299U 19030A   26073.31676042  .00000002  00000+0  00000+0 0  9998
2 44299  64.3686 195.8081 0009956 279.3052 158.2774  2.13102462 52903
COSMOS 2544 (759)       
1 44850U 19088A   26074.17703176  .00000062  00000+0  00000+0 0  9994
2 44850  65.5123  76.8668 0015837 260.0868  99.7740  2.13102149 48719
COSMOS 2545 (760)       
1 45358U 20018A   26073.90331436 -.00000017  00000+0  00000+0 0  9990
2 45358  64.4114 315.7347 0007923 249.4705 110.5087  2.13102754 46657
COSMOS 2547 (705K)      
1 46805U 20075A   26071.27634948  .00000011  00000+0  00000+0 0  9996
2 46805  64.5993 195.7069 0007007 230.8854 129.0383  2.13100396 41840
COSMOS 2557 (706K)      
1 52984U 22075A   26072.84916696 -.00000029  00000+0  00000+0 0  9990
2 52984  64.3539 317.8460 0011386 283.8913  76.0424  2.13102035 28686
COSMOS 2559 (707K)      
1 54031U 22130A   26074.07636359 -.00000021  00000+0  00000+0 0  9991
2 54031  64.3253 317.8892 0010667 179.9327 180.1308  2.13101353 26686
COSMOS 2564 (761)       
1 54377U 22161A   26072.51205527  .00000005  00000+0  00000+0 0  9995
2 54377  64.7411 195.8848 0009674 211.5910 148.3349  2.13101956 25590
COSMOS 2569 (703K)      
1 57517U 23114A   26072.99419750  .00000055  00000+0  00000+0 0  9995
2 57517  65.2480  75.8292 0012947 292.2655  67.6350  2.13103986 20236
COSMOS 2584 (704K)      
1 63130U 25042A   26068.65774225  .00000013  00000+0  00000+0 0  9998
2 63130  65.0271  76.1843 0007760 237.1910 122.7645  2.13103483  7928
COSMOS 2596 (708K)      
1 65590U 25206B   26074.30975255 -.00000020  00000+0  00000+0 0  9996
2 65590  64.6879 318.2563 0012708 316.5107 176.9222  2.13100410  3910
